$$SOE
2461295.500000000, A.D. 2026-Sep-12 00:00:00.0000, 4.194833029439248E+08, 1.805695124101838E+08, 2.561471553715166E+07,
2461302.500000000, A.D. 2026-Sep-19 00:00:00.0000, 4.181630145705827E+08, 1.903643021802726E+08, 2.289151107347141E+07,
2461309.500000000, A.D. 2026-Sep-26 00:00:00.0000, 4.166342075986491E+08, 2.000641479766120E+08, 2.015688608873130E+07,
2461316.500000000, A.D. 2026-Oct-03 00:00:00.0000, 4.149011177245395E+08, 2.096658785042462E+08, 1.741237263408397E+07,
2461323.500000000, A.D. 2026-Oct-10 00:00:00.0000, 4.129679541682931E+08, 2.191664809009390E+08, 1.465945769730376E+07,
2461330.500000000, A.D. 2026-Oct-17 00:00:00.0000, 4.108388963439513E+08, 2.285630942064382E+08, 1.189958433090194E+07,
2461337.500000000, A.D. 2026-Oct-24 00:00:00.0000, 4.085180908989241E+08, 2.378530029275193E+08, 9.134152787123024E+06,
2461344.500000000, A.D. 2026-Oct-31 00:00:00.0000, 4.060096491908524E+08, 2.470336306355528E+08, 6.364521639399767E+06,
2461351.500000000, A.D. 2026-Nov-07 00:00:00.0000, 4.033176455124601E+08, 2.561025336735727E+08, 3.592008860235050E+06,
2461358.500000000, A.D. 2026-Nov-14 00:00:00.0000, 4.004461162387348E+08, 2.650573958622695E+08, 8.178929054141492E+05,
2461365.500000000, A.D. 2026-Nov-21 00:00:00.0000, 3.973990580596438E+08, 2.738960248884616E+08, -1.956585976927891E+06,
2461372.500000000, A.D. 2026-Nov-28 00:00:00.0000, 3.941804242798276E+08, 2.826163473707197E+08, -4.730224369306266E+06,
2461379.500000000, A.D. 2026-Dec-05 00:00:00.0000, 3.907941227888086E+08, 2.912164019454240E+08, -7.501854628312394E+06,
2461386.500000000, A.D. 2026-Dec-12 00:00:00.0000, 3.872440158489807E+08, 2.996943334799309E+08, -1.027034391207914E+07,
2461393.500000000, A.D. 2026-Dec-19 00:00:00.0000, 3.835339197957512E+08, 3.080483884148354E+08, -1.303459312037024E+07,
2461400.500000000, A.D. 2026-Dec-26 00:00:00.0000, 3.796676044904066E+08, 3.162769103629415E+08, -1.579353580698109E+07,
2461407.500000000, A.D. 2027-Jan-02 00:00:00.0000, 3.756487927854061E+08, 3.243783357692795E+08, -1.854613710687609E+07,
2461414.500000000, A.D. 2027-Jan-09 00:00:00.0000, 3.714811601035375E+08, 3.323511896472977E+08, -2.129139268838979E+07,
2461421.500000000, A.D. 2027-Jan-16 00:00:00.0000, 3.671683341513609E+08, 3.401940813948613E+08, -2.402832773402052E+07,
2461428.500000000, A.D. 2027-Jan-23 00:00:00.0000, 3.627138947987306E+08, 3.479057006452262E+08, -2.675599595808764E+07,
2461435.500000000, A.D. 2027-Jan-30 00:00:00.0000, 3.581213742989155E+08, 3.554848131000841E+08, -2.947347868305975E+07,
2461442.500000000, A.D. 2027-Feb-06 00:00:00.0000, 3.533942582621039E+08, 3.629302566794223E+08, -3.217988398635985E+07,
2461449.500000000, A.D. 2027-Feb-13 00:00:00.0000, 3.485359869105958E+08, 3.702409392015511E+08, -3.487434577625439E+07,
2461456.500000000, A.D. 2027-Feb-20 00:00:00.0000, 3.435499542398725E+08, 3.774158367960658E+08, -3.755602264475760E+07,
2461463.500000000, A.D. 2027-Feb-27 00:00:00.0000, 3.384395064719025E+08, 3.844539898323750E+08, -4.022409688834378E+07,
2461470.500000000, A.D. 2027-Mar-06 00:00:00.0000, 3.332079428122078E+08, 3.913544982818284E+08, -4.287777381660540E+07,
2461477.500000000, A.D. 2027-Mar-13 00:00:00.0000, 3.278585169031230E+08, 3.981165185566465E+08, -4.551628103469923E+07,
2461484.500000000, A.D. 2027-Mar-20 00:00:00.0000, 3.223944378366017E+08, 4.047392609855469E+08, -4.813886766405219E+07,
2461491.500000000, A.D. 2027-Mar-27 00:00:00.0000, 3.168188709224586E+08, 4.112219873722650E+08, -5.074480356453121E+07,
2461498.500000000, A.D. 2027-Apr-03 00:00:00.0000, 3.111349384095729E+08, 4.175640085844668E+08, -5.333337858035801E+07,
2461505.500000000, A.D. 2027-Apr-10 00:00:00.0000, 3.053457202163849E+08, 4.237646821914016E+08, -5.590390181319079E+07,
2461512.500000000, A.D. 2027-Apr-17 00:00:00.0000, 2.994542546882436E+08, 4.298234101313998E+08, -5.845570092518988E+07,
2461519.500000000, A.D. 2027-Apr-24 00:00:00.0000, 2.934635394566824E+08, 4.357396363426865E+08, -6.098812148398626E+07,
2461526.500000000, A.D. 2027-May-01 00:00:00.0000, 2.873765326966190E+08, 4.415128443812968E+08, -6.350052637435126E+07,
2461533.500000000, A.D. 2027-May-08 00:00:00.0000, 2.811961550859406E+08, 4.471425557705181E+08, -6.599229524324970E+07,
2461540.500000000, A.D. 2027-May-15 00:00:00.0000, 2.749252909676905E+08, 4.526283300304325E+08, -6.846282376252005E+07,
2461547.500000000, A.D. 2027-May-22 00:00:00.0000, 2.685667871470456E+08, 4.579697637914573E+08, -7.091152277664915E+07,
2461554.500000000, A.D. 2027-May-29 00:00:00.0000, 2.621234526764509E+08, 4.631664875215021E+08, -7.333781776302253E+07,
2461561.500000000, A.D. 2027-Jun-05 00:00:00.0000, 2.555980605128478E+08, 4.682181629954382E+08, -7.574114842968406E+07,
2461568.500000000, A.D. 2027-Jun-12 00:00:00.0000, 2.489933490377446E+08, 4.731244819342899E+08, -7.812096823054771E+07,
2461575.500000000, A.D. 2027-Jun-19 00:00:00.0000, 2.423120231071410E+08, 4.778851648751334E+08, -8.047674384331317E+07,
2461582.500000000, A.D. 2027-Jun-26 00:00:00.0000, 2.355567549090064E+08, 4.824999600065628E+08, -8.280795465621758E+07,
2461589.500000000, A.D. 2027-Jul-03 00:00:00.0000, 2.287301847586398E+08, 4.869686419742197E+08, -8.511409227407007E+07,
2461596.500000000, A.D. 2027-Jul-10 00:00:00.0000, 2.218349218667572E+08, 4.912910106616802E+08, -8.739466004517378E+07,
2461603.500000000, A.D. 2027-Jul-17 00:00:00.0000, 2.148735451147045E+08, 4.954668899051358E+08, -8.964917261466472E+07,
2461610.500000000, A.D. 2027-Jul-24 00:00:00.0000, 2.078486039916969E+08, 4.994961260771636E+08, -9.187715552301474E+07,
2461617.500000000, A.D. 2027-Jul-31 00:00:00.0000, 2.007626201047472E+08, 5.033785867737452E+08, -9.407814486776370E+07,
2461624.500000000, A.D. 2027-Aug-07 00:00:00.0000, 1.936180890606733E+08, 5.071141607546648E+08, -9.625168691572511E+07,
2461631.500000000, A.D. 2027-Aug-14 00:00:00.0000, 1.864174804191028E+08, 5.107027588809687E+08, -9.839733747474848E+07,
2461638.500000000, A.D. 2027-Aug-21 00:00:00.0000, 1.791632363334644E+08, 5.141443126825085E+08, -1.005146613558581E+08,
2461645.500000000, A.D. 2027-Aug-28 00:00:00.0000, 1.718577723106079E+08, 5.174387717577683E+08, -1.026032321420233E+08,
2461652.500000000, A.D. 2027-Sep-04 00:00:00.0000, 1.645034789083166E+08, 5.205861025062721E+08, -1.046626319506548E+08,
2461659.500000000, A.D. 2027-Sep-11 00:00:00.0000, 1.571027229750267E+08, 5.235862875295612E+08, -1.066924511154645E+08,
2461666.500000000, A.D. 2027-Sep-18 00:00:00.0000, 1.496578485643222E+08, 5.264393250485183E+08, -1.086922878527018E+08,
2461673.500000000, A.D. 2027-Sep-25 00:00:00.0000, 1.421711777526504E+08, 5.291452282578864E+08, -1.106617479389096E+08,
2461680.500000000, A.D. 2027-Oct-02 00:00:00.0000, 1.346450114350528E+08, 5.317040246442690E+08, -1.126004444046933E+08,
2461687.500000000, A.D. 2027-Oct-09 00:00:00.0000, 1.270816301212337E+08, 5.341157552619858E+08, -1.145079972468004E+08,
2461694.500000000, A.D. 2027-Oct-16 00:00:00.0000, 1.194832947950770E+08, 5.363804739109151E+08, -1.163840331686517E+08,
2461701.500000000, A.D. 2027-Oct-23 00:00:00.0000, 1.118522480974839E+08, 5.384982462098029E+08, -1.182281853735010E+08,
2461708.500000000, A.D. 2027-Oct-30 00:00:00.0000, 1.041907162074168E+08, 5.404691491748128E+08, -1.200400933946898E+08,
2461715.500000000, A.D. 2027-Nov-06 00:00:00.0000, 9.650091025835478E+07, 5.422932724307179E+08, -1.218194027640756E+08,
2461722.500000000, A.D. 2027-Nov-13 00:00:00.0000, 8.878502530509262E+07, 5.439707189766645E+08, -1.235657645056531E+08,
2461729.500000000, A.D. 2027-Nov-20 00:00:00.0000, 8.104523974206235E+07, 5.455016033194824E+08, -1.252788348985715E+08,
2461736.500000000, A.D. 2027-Nov-27 00:00:00.0000, 7.328371679093181E+07, 5.468860499392233E+08, -1.269582754157830E+08,
2461743.500000000, A.D. 2027-Dec-04 00:00:00.0000, 6.550260603478710E+07, 5.481241930000062E+08, -1.286037525778744E+08,
2461750.500000000, A.D. 2027-Dec-11 00:00:00.0000, 5.770404444861398E+07, 5.492161763408216E+08, -1.302149377498135E+08,
2461757.500000000, A.D. 2027-Dec-18 00:00:00.0000, 4.989015720107633E+07, 5.501621534061434E+08, -1.317915069330213E+08,
2461764.500000000, A.D. 2027-Dec-25 00:00:00.0000, 4.206305837958132E+07, 5.509622871133970E+08, -1.333331405664523E+08,
2461771.500000000, A.D. 2028-Jan-01 00:00:00.0000, 3.422485168002600E+07, 5.516167496712368E+08, -1.348395233388962E+08,
$$EOE